{
  "type": "FeatureCollection",
  "template_only": true,
  "instructions": [
    "This file is for measured anchor polygons only.",
    "Replace every placeholder feature_id.",
    "Replace every null coordinate with the reviewed anchor polygon coordinates.",
    "Enter measured depth ranges in metres for both anchors.",
    "Do not add candidate polygons. The app uses every classifier finding automatically.",
    "Remove template_only before uploading the completed file."
  ],
  "features": [
    {
      "type": "Feature",
      "properties": {
        "feature_id": "replace-with-shallow-anchor-id",
        "role": "anchor",
        "depth_min_m": 0.4,
        "depth_best_m": 0.5,
        "depth_max_m": 0.6
      },
      "geometry": {
        "type": "Polygon",
        "coordinates": [
          [
            [null, null],
            [null, null],
            [null, null],
            [null, null],
            [null, null]
          ]
        ]
      }
    },
    {
      "type": "Feature",
      "properties": {
        "feature_id": "replace-with-deep-anchor-id",
        "role": "anchor",
        "depth_min_m": 1.4,
        "depth_best_m": 1.5,
        "depth_max_m": 1.6
      },
      "geometry": {
        "type": "Polygon",
        "coordinates": [
          [
            [null, null],
            [null, null],
            [null, null],
            [null, null],
            [null, null]
          ]
        ]
      }
    }
  ]
}
