{
  "type": "FeatureCollection",
  "name": "tyrone_3x_six_plot_reference_v1",
  "crs": {"type": "name", "properties": {"name": "Tyrone local mine drawing grid (feet; custom/local; not EPSG; NOT WGS84)"}},
  "metadata": {
    "status": "official_drawing_source_grid_reference_v1",
    "source_drawing": "3X_CQAR_010_R0.pdf",
    "source_drawing_title": "TAILING IMPOUNDMENT TEST PLOTS AS-BUILT",
    "source_page": 1,
    "coordinate_reference_note": "Coordinates are in the CQAR drawing local mine grid, not longitude/latitude. Do not overlay directly on satellite rasters until a verified local-grid-to-run-raster transform is recovered.",
    "geometry_provenance": "Digitized from visible plot boundary centerlines on official coordinate-controlled AS-BUILT drawing; not original CAD/survey vertices.",
    "official_acreage_note": "Official printed acreage is retained independently from digitized planimetric polygon area; geometry was not altered to force an acreage match.",
    "run_id": "0c6d05ab-798b-40d4-b608-e01deabd6cb8"
  },
  "features": [
    {"type":"Feature","properties":{"plot_id":"TP1","surface_type":"outslope","nominal_design_depth_ft":2,"nominal_design_depth_m":0.6096,"measured_depth_samples_in":[27,27,26,27,32],"measured_depth_mean_m":0.70612,"measured_depth_min_m":0.6604,"measured_depth_max_m":0.8128,"official_drawing_acreage":4.9,"digitized_planimetric_acreage":4.8261,"acreage_delta_acres":-0.0739,"acreage_delta_pct":-1.51,"source_drawing":"3X_CQAR_010_R0.pdf","source_drawing_title":"TAILING IMPOUNDMENT TEST PLOTS AS-BUILT","source_page":1,"geometry_provenance":"Boundary centerline digitized from official coordinate-controlled CQAR AS-BUILT drawing; coordinates reconstructed from labeled local mine grid; raster stair-stepping simplified below one source-render pixel; not original CAD/survey vertices.","geometry_coordinate_system":"Tyrone local mine drawing grid; feet; westing represented as signed negative W values and northing positive N values; no EPSG assignment verified.","geometry_status":"official_drawing_boundary_digitization_v1","global_georeferencing_status":"not_verified_in_this_artifact","raster_ready":false,"run_id":"0c6d05ab-798b-40d4-b608-e01deabd6cb8","pixel_count":null},"geometry":{"type":"Polygon","coordinates":[[[-4067.71,39853.48],[-4042.95,40171.01],[-4029.44,40274.59],[-4031.69,40303.87],[-4560.74,40297.11],[-4538.22,40044.9],[-4533.72,40040.39],[-4533.72,39995.36],[-4517.96,39889.51],[-4135.25,39862.49],[-4130.75,39857.99],[-4072.21,39857.99],[-4067.71,39853.48]]]}},
    {"type":"Feature","properties":{"plot_id":"TP2","surface_type":"outslope","nominal_design_depth_ft":3,"nominal_design_depth_m":0.9144,"measured_depth_samples_in":[36,34,39,42,36],"measured_depth_mean_m":0.94996,"measured_depth_min_m":0.8636,"measured_depth_max_m":1.0668,"official_drawing_acreage":5.4,"digitized_planimetric_acreage":5.3456,"acreage_delta_acres":-0.0544,"acreage_delta_pct":-1.01,"source_drawing":"3X_CQAR_010_R0.pdf","source_drawing_title":"TAILING IMPOUNDMENT TEST PLOTS AS-BUILT","source_page":1,"geometry_provenance":"Boundary centerline digitized from official coordinate-controlled CQAR AS-BUILT drawing; coordinates reconstructed from labeled local mine grid; raster stair-stepping simplified below one source-render pixel; not original CAD/survey vertices.","geometry_coordinate_system":"Tyrone local mine drawing grid; feet; westing represented as signed negative W values and northing positive N values; no EPSG assignment verified.","geometry_status":"official_drawing_boundary_digitization_v1","global_georeferencing_status":"not_verified_in_this_artifact","raster_ready":false,"run_id":"0c6d05ab-798b-40d4-b608-e01deabd6cb8","pixel_count":null},"geometry":{"type":"Polygon","coordinates":[[[-4346.87,39331.03],[-4020.43,39644.05],[-4020.43,39657.56],[-4038.44,39689.09],[-4060.96,39756.65],[-4069.96,39851.23],[-4495.45,39880.51],[-4553.98,39889.51],[-4621.52,39889.51],[-4605.76,39666.57],[-4596.76,39594.51],[-4578.75,39540.46],[-4542.73,39477.41],[-4495.45,39430.12],[-4364.88,39335.54],[-4346.87,39331.03]]]}},
    {"type":"Feature","properties":{"plot_id":"TP3","surface_type":"outslope","nominal_design_depth_ft":4,"nominal_design_depth_m":1.2192,"measured_depth_samples_in":[50,49,54,52,47],"measured_depth_mean_m":1.28016,"measured_depth_min_m":1.1938,"measured_depth_max_m":1.3716,"official_drawing_acreage":4.7,"digitized_planimetric_acreage":4.625,"acreage_delta_acres":-0.075,"acreage_delta_pct":-1.6,"source_drawing":"3X_CQAR_010_R0.pdf","source_drawing_title":"TAILING IMPOUNDMENT TEST PLOTS AS-BUILT","source_page":1,"geometry_provenance":"Boundary centerline digitized from official coordinate-controlled CQAR AS-BUILT drawing; coordinates reconstructed from labeled local mine grid; raster stair-stepping simplified below one source-render pixel; not original CAD/survey vertices.","geometry_coordinate_system":"Tyrone local mine drawing grid; feet; westing represented as signed negative W values and northing positive N values; no EPSG assignment verified.","geometry_status":"official_drawing_boundary_digitization_v1","global_georeferencing_status":"not_verified_in_this_artifact","raster_ready":false,"run_id":"0c6d05ab-798b-40d4-b608-e01deabd6cb8","pixel_count":null},"geometry":{"type":"Polygon","coordinates":[[[-3973.16,39042.79],[-3680.49,39146.38],[-3673.74,39157.64],[-3966.4,39581.0],[-4002.42,39630.54],[-4018.18,39641.8],[-4265.82,39407.6],[-4344.62,39324.28],[-4076.72,39128.36],[-3995.67,39042.79],[-3973.16,39042.79]]]}},
    {"type":"Feature","properties":{"plot_id":"TP5","surface_type":"top_surface","nominal_design_depth_ft":2,"nominal_design_depth_m":0.6096,"measured_depth_samples_in":[28,26,26,28,26],"measured_depth_mean_m":0.68072,"measured_depth_min_m":0.6604,"measured_depth_max_m":0.7112,"official_drawing_acreage":4.1,"digitized_planimetric_acreage":3.9941,"acreage_delta_acres":-0.1059,"acreage_delta_pct":-2.58,"source_drawing":"3X_CQAR_010_R0.pdf","source_drawing_title":"TAILING IMPOUNDMENT TEST PLOTS AS-BUILT","source_page":1,"geometry_provenance":"Boundary centerline digitized from official coordinate-controlled CQAR AS-BUILT drawing; coordinates reconstructed from labeled local mine grid; raster stair-stepping simplified below one source-render pixel; not original CAD/survey vertices.","geometry_coordinate_system":"Tyrone local mine drawing grid; feet; westing represented as signed negative W values and northing positive N values; no EPSG assignment verified.","geometry_status":"official_drawing_boundary_digitization_v1","global_georeferencing_status":"not_verified_in_this_artifact","raster_ready":false,"run_id":"0c6d05ab-798b-40d4-b608-e01deabd6cb8","pixel_count":null},"geometry":{"type":"Polygon","coordinates":[[[-3324.8,40020.13],[-3187.47,40351.16],[-3203.23,40366.92],[-3527.41,40497.54],[-3831.33,40265.59],[-3824.58,40249.82],[-3730.02,40182.27],[-3392.33,40042.65],[-3324.8,40020.13]]]}},
    {"type":"Feature","properties":{"plot_id":"TP6","surface_type":"top_surface","nominal_design_depth_ft":3,"nominal_design_depth_m":0.9144,"measured_depth_samples_in":[40,35,42,36,34],"measured_depth_mean_m":0.94996,"measured_depth_min_m":0.8636,"measured_depth_max_m":1.0668,"official_drawing_acreage":4.5,"digitized_planimetric_acreage":4.3725,"acreage_delta_acres":-0.1275,"acreage_delta_pct":-2.83,"source_drawing":"3X_CQAR_010_R0.pdf","source_drawing_title":"TAILING IMPOUNDMENT TEST PLOTS AS-BUILT","source_page":1,"geometry_provenance":"Boundary centerline digitized from official coordinate-controlled CQAR AS-BUILT drawing; coordinates reconstructed from labeled local mine grid; raster stair-stepping simplified below one source-render pixel; not original CAD/survey vertices.","geometry_coordinate_system":"Tyrone local mine drawing grid; feet; westing represented as signed negative W values and northing positive N values; no EPSG assignment verified.","geometry_status":"official_drawing_boundary_digitization_v1","global_georeferencing_status":"not_verified_in_this_artifact","raster_ready":false,"run_id":"0c6d05ab-798b-40d4-b608-e01deabd6cb8","pixel_count":null},"geometry":{"type":"Polygon","coordinates":[[[-3455.37,39673.33],[-3336.05,39981.84],[-3437.36,40029.13],[-3752.54,40155.24],[-3833.58,40218.3],[-3856.09,40227.3],[-3943.89,39914.29],[-3952.9,39864.74],[-3455.37,39673.33]]]}},
    {"type":"Feature","properties":{"plot_id":"TP7","surface_type":"top_surface","nominal_design_depth_ft":4,"nominal_design_depth_m":1.2192,"measured_depth_samples_in":[50,50,52,51,54],"measured_depth_mean_m":1.30556,"measured_depth_min_m":1.27,"measured_depth_max_m":1.3716,"official_drawing_acreage":2.3,"digitized_planimetric_acreage":2.1934,"acreage_delta_acres":-0.1066,"acreage_delta_pct":-4.63,"source_drawing":"3X_CQAR_010_R0.pdf","source_drawing_title":"TAILING IMPOUNDMENT TEST PLOTS AS-BUILT","source_page":1,"geometry_provenance":"Boundary centerline digitized from official coordinate-controlled CQAR AS-BUILT drawing; coordinates reconstructed from labeled local mine grid; raster stair-stepping simplified below one source-render pixel; not original CAD/survey vertices.","geometry_coordinate_system":"Tyrone local mine drawing grid; feet; westing represented as signed negative W values and northing positive N values; no EPSG assignment verified.","geometry_status":"official_drawing_boundary_digitization_v1","global_georeferencing_status":"not_verified_in_this_artifact","raster_ready":false,"run_id":"0c6d05ab-798b-40d4-b608-e01deabd6cb8","pixel_count":null},"geometry":{"type":"Polygon","coordinates":[[[-3603.95,39286.0],[-3480.13,39599.01],[-3471.13,39639.55],[-3905.62,39808.44],[-3916.88,39797.18],[-3912.37,39788.18],[-3619.71,39301.76],[-3603.95,39286.0]]]}}
  ]
}
