{"type":"FeatureCollection","name":"tyrone_3x_six_plot_reference_v1_wgs84","metadata":{"status":"raster_ready_for_10m_replacement_signal_screening","source_local_geometry":"tyrone_3x_six_plot_reference_v1.geojson","transform":"tyrone_mine_grid_to_global_transform_v1.json","crs":"WGS84 / EPSG:4326","run_id":"0c6d05ab-798b-40d4-b608-e01deabd6cb8","nb_depth_status":"closed_failed_validation"},"features":[{"type":"Feature","properties":{"plot_id":"TP1","surface_type":"outslope","measured_depth_mean_m":0.70612,"official_drawing_acreage":4.9,"source_local_geometry":"data/depth_reference/tyrone_3x_six_plot_reference_v1.geojson","source_drawing":"3X_CQAR_010_R0.pdf","geometry_provenance":"Official AS-BUILT drawing boundary-centerline digitization; not original CAD/survey vertices.","global_transform":"tyrone_mine_grid_to_utm12n_wgs84_similarity_v1","global_crs":"WGS84 / EPSG:4326","intermediate_crs":"WGS84 / UTM Zone 12N / EPSG:32612","centroid_longitude":-108.42032365,"centroid_latitude":32.72230046,"digitized_planimetric_acreage_local":4.8261,"raster_ready_for_10m_screening":true,"accuracy_note":"Transform control residual is negligible relative to 10 m pixels; boundary accuracy remains limited by source drawing digitization, not original survey vertices."},"geometry":{"type":"Polygon","coordinates":[[[-108.41960873,32.7216342],[-108.41951272,32.72250556],[-108.41946375,32.72278958],[-108.41946963,32.72287011],[-108.42118946,32.7228734],[-108.42112859,32.72217955],[-108.42111419,32.72216697],[-108.42111639,32.72204326],[-108.42107034,32.7217518],[-108.4198278,32.72166175],[-108.41981339,32.7216492],[-108.41962313,32.72164678],[-108.41960873,32.7216342]]]}},{"type":"Feature","properties":{"plot_id":"TP2","surface_type":"outslope","measured_depth_mean_m":0.94996,"official_drawing_acreage":5.4,"source_local_geometry":"data/depth_reference/tyrone_3x_six_plot_reference_v1.geojson","source_drawing":"3X_CQAR_010_R0.pdf","geometry_provenance":"Official AS-BUILT drawing boundary-centerline digitization; not original CAD/survey vertices.","global_transform":"tyrone_mine_grid_to_utm12n_wgs84_similarity_v1","global_crs":"WGS84 / EPSG:4326","intermediate_crs":"WGS84 / UTM Zone 12N / EPSG:32612","centroid_longitude":-108.42051685,"centroid_latitude":32.72109722,"digitized_planimetric_acreage_local":5.3456,"raster_ready_for_10m_screening":true,"accuracy_note":"Transform control residual is negligible relative to 10 m pixels; boundary accuracy remains limited by source drawing digitization, not original survey vertices."},"geometry":{"type":"Polygon","coordinates":[[[-108.42054157,32.72021036],[-108.4194653,32.72105686],[-108.41946464,32.72109398],[-108.41952164,32.72118135],[-108.41959152,32.72136789],[-108.41961615,32.72162811],[-108.42099762,32.72172614],[-108.42118741,32.72175328],[-108.42140692,32.72175607],[-108.42136659,32.72114292],[-108.42134086,32.72094457],[-108.42128497,32.72079533],[-108.42117098,32.72062061],[-108.42101962,32.72048874],[-108.42059988,32.72022349],[-108.42054157,32.72021036]]]}},{"type":"Feature","properties":{"plot_id":"TP3","surface_type":"outslope","measured_depth_mean_m":1.28016,"official_drawing_acreage":4.7,"source_local_geometry":"data/depth_reference/tyrone_3x_six_plot_reference_v1.geojson","source_drawing":"3X_CQAR_010_R0.pdf","geometry_provenance":"Official AS-BUILT drawing boundary-centerline digitization; not original CAD/survey vertices.","global_transform":"tyrone_mine_grid_to_utm12n_wgs84_similarity_v1","global_crs":"WGS84 / EPSG:4326","intermediate_crs":"WGS84 / UTM Zone 12N / EPSG:32612","centroid_longitude":-108.41943117,"centroid_latitude":32.72014249,"digitized_planimetric_acreage_local":4.625,"raster_ready_for_10m_screening":true,"accuracy_note":"Transform control residual is negligible relative to 10 m pixels; boundary accuracy remains limited by source drawing digitization, not original survey vertices."},"geometry":{"type":"Polygon","coordinates":[[[-108.41934108,32.719403],[-108.41838482,32.7196755],[-108.41836233,32.71970616],[-108.41929278,32.7208814],[-108.41940743,32.721019],[-108.4194581,32.72105058],[-108.42027441,32.72041738],[-108.42053459,32.72019172],[-108.41967347,32.71964238],[-108.41941424,32.71940393],[-108.41934108,32.719403]]]}},{"type":"Feature","properties":{"plot_id":"TP5","surface_type":"top_surface","measured_depth_mean_m":0.68072,"official_drawing_acreage":4.1,"source_local_geometry":"data/depth_reference/tyrone_3x_six_plot_reference_v1.geojson","source_drawing":"3X_CQAR_010_R0.pdf","geometry_provenance":"Official AS-BUILT drawing boundary-centerline digitization; not original CAD/survey vertices.","global_transform":"tyrone_mine_grid_to_utm12n_wgs84_similarity_v1","global_crs":"WGS84 / EPSG:4326","intermediate_crs":"WGS84 / UTM Zone 12N / EPSG:32612","centroid_longitude":-108.4176809,"centroid_latitude":32.72274592,"digitized_planimetric_acreage_local":3.9941,"raster_ready_for_10m_screening":true,"accuracy_note":"Transform control residual is negligible relative to 10 m pixels; boundary accuracy remains limited by source drawing digitization, not original survey vertices."},"geometry":{"type":"Polygon","coordinates":[[[-108.41718601,32.72206132],[-108.41672345,32.7229651],[-108.4167739,32.72300905],[-108.41782115,32.72338134],[-108.4188203,32.72275666],[-108.41879913,32.72271305],[-108.4184951,32.72252355],[-108.41740439,32.72212599],[-108.41718601,32.72206132]]]}},{"type":"Feature","properties":{"plot_id":"TP6","surface_type":"top_surface","measured_depth_mean_m":0.94996,"official_drawing_acreage":4.5,"source_local_geometry":"data/depth_reference/tyrone_3x_six_plot_reference_v1.geojson","source_drawing":"3X_CQAR_010_R0.pdf","geometry_provenance":"Official AS-BUILT drawing boundary-centerline digitization; not original CAD/survey vertices.","global_transform":"tyrone_mine_grid_to_utm12n_wgs84_similarity_v1","global_crs":"WGS84 / EPSG:4326","intermediate_crs":"WGS84 / UTM Zone 12N / EPSG:32612","centroid_longitude":-108.41826375,"centroid_latitude":32.72184519,"digitized_planimetric_acreage_local":4.3725,"raster_ready_for_10m_screening":true,"accuracy_note":"Transform control residual is negligible relative to 10 m pixels; boundary accuracy remains limited by source drawing digitization, not original survey vertices."},"geometry":{"type":"Polygon","coordinates":[[[-108.41762736,32.72111393],[-108.41722445,32.72195659],[-108.41755141,32.72209071],[-108.41856962,32.72245022],[-108.41882992,32.72262683],[-108.41890264,32.72265248],[-108.41920332,32.72179615],[-108.41923503,32.72166039],[-108.41762736,32.72111393]]]}},{"type":"Feature","properties":{"plot_id":"TP7","surface_type":"top_surface","measured_depth_mean_m":1.30556,"official_drawing_acreage":2.3,"source_local_geometry":"data/depth_reference/tyrone_3x_six_plot_reference_v1.geojson","source_drawing":"3X_CQAR_010_R0.pdf","geometry_provenance":"Official AS-BUILT drawing boundary-centerline digitization; not original CAD/survey vertices.","global_transform":"tyrone_mine_grid_to_utm12n_wgs84_similarity_v1","global_crs":"WGS84 / EPSG:4326","intermediate_crs":"WGS84 / UTM Zone 12N / EPSG:32612","centroid_longitude":-108.41832,"centroid_latitude":32.72086066,"digitized_planimetric_acreage_local":2.1934,"raster_ready_for_10m_screening":true,"accuracy_note":"Transform control residual is negligible relative to 10 m pixels; boundary accuracy remains limited by source drawing digitization, not original survey vertices."},"geometry":{"type":"Polygon","coordinates":[[[-108.41812922,32.72005593],[-108.41771148,32.72091077],[-108.41768024,32.72102177],[-108.41908412,32.72150376],[-108.41912126,32.72147329],[-108.41910705,32.72144837],[-108.41817967,32.72009988],[-108.41812922,32.72005593]]]}}]}