{"type":"FeatureCollection","name":"sconondoa_phase3_depth_ordering_survey_corrected","properties":{"status":"SURVEY_CONTROL_VALIDATED_READY_FOR_COVERAGE_DRY_RUN","supersedes":"data/sconondoa_phase3_depth_ordering_qa_only.geojson","source_horizontal_reference":"Appendix B-3 local assumed project datum, tied to Appendix A NAD83(2011) New York Central survey","intermediate_crs":"EPSG:6535","output_crs":"EPSG:4326","transform_type":"2D unit-scale rigid rotation and translation","transform_matrix_EN_to_EN":[[0.97842794,-0.20658839],[0.20658839,0.97842794]],"transform_offset_E_N_ft":[1066120.4639,1124114.5463],"control_feature_count":3,"control_features":"three common permanent Service Center building corners","control_residual_mean_m":0.116,"control_residual_max_m":0.16,"independent_holdout_feature":"unused southwest Service Center building corner","holdout_residual_m":0.639,"appendix_a_state_plane_fit_mean_m":0.232,"appendix_a_state_plane_fit_max_m":0.385,"conservative_combined_placement_uncertainty_m":1.1,"earth_engine_query_executed":false,"allowed_next_action":"coverage_and_pixel_support_dry_run_only","warning":"Do not create a calibration row or enable app depth from this file. Run the coverage dry run first."},"features":[{"type":"Feature","properties":{"zone_id":"sconondoa_phase3_shallow_A_upper","class":"shallow","cells":"A","survey_point_ids":[109,112,118,123,127,132,138,141,150,159],"depth_definition":"post-construction final surface elevation minus post-excavation bottom elevation","depth_sample_count":10,"depth_min_ft":10.8,"depth_max_ft":12.0,"depth_mean_ft":11.52,"depth_min_m":3.292,"depth_max_m":3.658,"depth_mean_m":3.511,"polygon_area_m2":387.5,"minimum_rotated_dimension_m":21.1,"maximum_rotated_dimension_m":25.6,"surface_restoration":"woven geotextile; 8 in compacted run-of-bank gravel; 4 in crushed stone","local_assumed_datum_vertices_EN_ft":[[5189.8,5155.3],[5114.8,5157.0],[5121.6,5189.9],[5130.8,5201.7],[5149.4,5225.3],[5180.5,5216.3],[5199.0,5167.1],[5189.8,5155.3]],"state_plane_vertices_EN_ft":[[1070133.2841,1130230.7883],[1070059.5508,1130216.9575],[1070059.4074,1130250.5526],[1070065.9711,1130263.9986],[1070079.2944,1130290.9321],[1070111.5828,1130288.5511],[1070139.8479,1130244.2344],[1070133.2841,1130230.7883]],"placement_uncertainty_m":1.1},"geometry":{"type":"Polygon","coordinates":[[[-75.647566460484,43.098121099516],[-75.6478430737,43.098085412979],[-75.64784220755,43.098177582686],[-75.647817073011,43.09821426994],[-75.647766069525,43.098287751791],[-75.64764529048,43.098280231433],[-75.647541325805,43.098157786708],[-75.647566460484,43.098121099516]]]}},{"type":"Feature","properties":{"zone_id":"sconondoa_phase3_deep_BC_combined","class":"deep","cells":"B and C","survey_point_ids":{"B":[201,202,203,204,208,209,210,212,213,214,216,217,218,220,221,222,224,225,226],"C":[306,307,308,311,312,313,316,317,318,321,322,323,326,327,328,331,332,333]},"depth_definition":"post-construction final surface elevation minus post-excavation bottom elevation","depth_sample_count":37,"depth_min_ft":15.2,"depth_max_ft":16.7,"depth_mean_ft":16.01,"depth_min_m":4.633,"depth_max_m":5.09,"depth_mean_m":4.881,"polygon_area_m2":498.8,"minimum_rotated_dimension_m":23.2,"maximum_rotated_dimension_m":24.3,"surface_restoration":"woven geotextile; 8 in compacted run-of-bank gravel; 4 in crushed stone","internal_cell_boundary_included":true,"local_assumed_datum_vertices_EN_ft":[[5112.6,5042.5],[5098.3,5047.1],[5083.1,5052.0],[5054.5,5061.3],[5063.9,5089.8],[5073.3,5118.3],[5078.0,5132.5],[5108.8,5127.1],[5123.1,5122.5],[5151.6,5113.1],[5112.6,5042.5]],"state_plane_vertices_EN_ft":[[1070081.0526,1130104.473],[1070066.1108,1130106.0196],[1070050.2264,1130107.6737],[1070020.3221,1130110.8647],[1070023.6316,1130140.6918],[1070026.941,1130170.5189],[1070028.6061,1130185.3836],[1070059.8572,1130186.463],[1070074.7991,1130184.9164],[1070104.6262,1130181.607],[1070081.0526,1130104.473]],"placement_uncertainty_m":1.1},"geometry":{"type":"Polygon","coordinates":[[[-75.647767275824,43.097776162953],[-75.64782314867,43.097780863148],[-75.647882545683,43.097785887353],[-75.647994364675,43.097795556661],[-75.647980729528,43.097877283641],[-75.647967094343,43.097959010617],[-75.647960240109,43.097999739576],[-75.647843200207,43.098001744397],[-75.647787327159,43.097997044209],[-75.647675801739,43.09798705196],[-75.647767275824,43.097776162953]]]}}]}
